{"type": "FeatureCollection", "features": [ {"type": "Feature", "properties": {"norad_id": 44476, "name": "INTELSAT 39 (IS-39)", "group": "intelsat", "lat": -0.010393255777014608, "lon": -8.363619390715192, "alt_km": 35789.76597918976, "timestamp": "2025-12-26T12:57:38.935094+00:00", "meta": {"OBJECT_NAME": "INTELSAT 39 (IS-39)", "OBJECT_ID": "2019-049B", "EPOCH": "2025-12-26T02:18:38.819232", "MEAN_MOTION": 1.00272077, "ECCENTRICITY": 9.315e-05, "INCLINATION": 0.0019, "RA_OF_ASC_NODE": 36.1159, "ARG_OF_PERICENTER": 121.2082, "MEAN_ANOMALY": 34.1336, "EPHEMERIS_TYPE": 0, "CLASSIFICATION_TYPE": "U", "NORAD_CAT_ID": 44476, "ELEMENT_SET_NO": 999, "REV_AT_EPOCH": 2339, "BSTAR": 0, "MEAN_MOTION_DOT": 5.5e-07, "MEAN_MOTION_DDOT": 0}, "tle": {"line1": "1 44476U 19049B   25360.09628263  .00000055  00000+0  00000+0 0  9998", "line2": "2 44476   0.0019  36.1159 0000931 121.2082  34.1336  1.00272077 23394"}}, "geometry": {"type": "Point", "coordinates": [-8.363619390715192, -0.010393255777014608]}}, {"type": "Feature", "properties": {"norad_id": 46114, "name": "GALAXY 30 (G-30)", "group": "intelsat", "lat": 0.010867181574388622, "lon": 164.66074080605003, "alt_km": 35789.79158487468, "timestamp": "2025-12-26T12:57:38.935105+00:00", "meta": {"OBJECT_NAME": "GALAXY 30 (G-30)", "OBJECT_ID": "2020-056C", "EPOCH": "2025-12-26T05:46:42.761280", "MEAN_MOTION": 1.0027102, "ECCENTRICITY": 0.00023411, "INCLINATION": 0.0016, "RA_OF_ASC_NODE": 22.3625, "ARG_OF_PERICENTER": 253.0732, "MEAN_ANOMALY": 141.2291, "EPHEMERIS_TYPE": 0, "CLASSIFICATION_TYPE": "U", "NORAD_CAT_ID": 46114, "ELEMENT_SET_NO": 999, "REV_AT_EPOCH": 1955, "BSTAR": 0, "MEAN_MOTION_DOT": 5.9e-07, "MEAN_MOTION_DDOT": 0}, "tle": {"line1": "1 46114U 20056C   25360.24077270  .00000059  00000+0  00000+0 0  9996", "line2": "2 46114   0.0016  22.3625 0002341 253.0732 141.2291  1.00271020 19550"}}, "geometry": {"type": "Point", "coordinates": [164.66074080605003, 0.010867181574388622]}}, {"type": "Feature", "properties": {"norad_id": 54026, "name": "GALAXY 33 (G-33)", "group": "intelsat", "lat": 0.0019846107849291867, "lon": 156.6845120977654, "alt_km": 35788.01496723563, "timestamp": "2025-12-26T12:57:38.935116+00:00", "meta": {"OBJECT_NAME": "GALAXY 33 (G-33)", "OBJECT_ID": "2022-128A", "EPOCH": "2025-12-24T04:31:51.326400", "MEAN_MOTION": 1.00272122, "ECCENTRICITY": 0.0001643, "INCLINATION": 0.0126, "RA_OF_ASC_NODE": 315.9231, "ARG_OF_PERICENTER": 309.5058, "MEAN_ANOMALY": 122.5078, "EPHEMERIS_TYPE": 0, "CLASSIFICATION_TYPE": "U", "NORAD_CAT_ID": 54026, "ELEMENT_SET_NO": 999, "REV_AT_EPOCH": 1198, "BSTAR": 0, "MEAN_MOTION_DOT": 1e-06, "MEAN_MOTION_DDOT": 0}, "tle": {"line1": "1 54026U 22128A   25358.18878850  .00000100  00000+0  00000+0 0  9999", "line2": "2 54026   0.0126 315.9231 0001643 309.5058 122.5078  1.00272122 11987"}}, "geometry": {"type": "Point", "coordinates": [156.6845120977654, 0.0019846107849291867]}}, {"type": "Feature", "properties": {"norad_id": 54027, "name": "GALAXY 34 (G-34)", "group": "intelsat", "lat": 0.021388160667920087, "lon": 160.7117146932895, "alt_km": 35788.828505731275, "timestamp": "2025-12-26T12:57:38.935128+00:00", "meta": {"OBJECT_NAME": "GALAXY 34 (G-34)", "OBJECT_ID": "2022-128B", "EPOCH": "2025-12-26T05:44:45.836160", "MEAN_MOTION": 1.00270295, "ECCENTRICITY": 0.0001789, "INCLINATION": 0.0226, "RA_OF_ASC_NODE": 12.0024, "ARG_OF_PERICENTER": 256.7619, "MEAN_ANOMALY": 143.4581, "EPHEMERIS_TYPE": 0, "CLASSIFICATION_TYPE": "U", "NORAD_CAT_ID": 54027, "ELEMENT_SET_NO": 999, "REV_AT_EPOCH": 1217, "BSTAR": 0, "MEAN_MOTION_DOT": 0, "MEAN_MOTION_DDOT": 0}, "tle": {"line1": "1 54027U 22128B   25360.23941940  .00000000  00000+0  00000+0 0  9999", "line2": "2 54027   0.0226  12.0024 0001789 256.7619 143.4581  1.00270295 12173"}}, "geometry": {"type": "Point", "coordinates": [160.7117146932895, 0.021388160667920087]}}, {"type": "Feature", "properties": {"norad_id": 54243, "name": "GALAXY 31 (G-31)", "group": "intelsat", "lat": -0.002229149137082749, "lon": 168.66743247701356, "alt_km": 35789.573134886705, "timestamp": "2025-12-26T12:57:38.935139+00:00", "meta": {"OBJECT_NAME": "GALAXY 31 (G-31)", "OBJECT_ID": "2022-153A", "EPOCH": "2025-12-26T05:50:54.375360", "MEAN_MOTION": 1.00271149, "ECCENTRICITY": 0.00017637, "INCLINATION": 0.0129, "RA_OF_ASC_NODE": 186.4349, "ARG_OF_PERICENTER": 98.7851, "MEAN_ANOMALY": 136.4956, "EPHEMERIS_TYPE": 0, "CLASSIFICATION_TYPE": "U", "NORAD_CAT_ID": 54243, "ELEMENT_SET_NO": 999, "REV_AT_EPOCH": 539, "BSTAR": 0, "MEAN_MOTION_DOT": 3.5e-07, "MEAN_MOTION_DDOT": 0}, "tle": {"line1": "1 54243U 22153A   25360.24368490  .00000035  00000+0  00000+0 0  9999", "line2": "2 54243   0.0129 186.4349 0001763  98.7851 136.4956  1.00271149  5398"}}, "geometry": {"type": "Point", "coordinates": [168.66743247701356, -0.002229149137082749]}}, {"type": "Feature", "properties": {"norad_id": 54244, "name": "GALAXY 32 (G-32)", "group": "intelsat", "lat": -0.0010968153050367742, "lon": -161.32544108903426, "alt_km": 35789.80740981729, "timestamp": "2025-12-26T12:57:38.935150+00:00", "meta": {"OBJECT_NAME": "GALAXY 32 (G-32)", "OBJECT_ID": "2022-153B", "EPOCH": "2025-12-24T22:56:22.028928", "MEAN_MOTION": 1.00272509, "ECCENTRICITY": 0.0001992, "INCLINATION": 0.0091, "RA_OF_ASC_NODE": 20.8495, "ARG_OF_PERICENTER": 295.2988, "MEAN_ANOMALY": 30.6679, "EPHEMERIS_TYPE": 0, "CLASSIFICATION_TYPE": "U", "NORAD_CAT_ID": 54244, "ELEMENT_SET_NO": 999, "REV_AT_EPOCH": 1139, "BSTAR": 0, "MEAN_MOTION_DOT": -1.53e-06, "MEAN_MOTION_DDOT": 0}, "tle": {"line1": "1 54244U 22153B   25358.95581052 -.00000153  00000+0  00000+0 0  9998", "line2": "2 54244   0.0091  20.8495 0001992 295.2988  30.6679  1.00272509 11394"}}, "geometry": {"type": "Point", "coordinates": [-161.32544108903426, -0.0010968153050367742]}}, {"type": "Feature", "properties": {"norad_id": 54741, "name": "GALAXY 35 (G-35)", "group": "intelsat", "lat": -0.010363172076760576, "lon": -163.43332574586043, "alt_km": 35784.664520791244, "timestamp": "2025-12-26T12:57:38.935163+00:00", "meta": {"OBJECT_NAME": "GALAXY 35 (G-35)", "OBJECT_ID": "2022-170A", "EPOCH": "2025-12-26T06:05:10.563072", "MEAN_MOTION": 1.00270831, "ECCENTRICITY": 0.00023837, "INCLINATION": 0.0213, "RA_OF_ASC_NODE": 259.191, "ARG_OF_PERICENTER": 17.6851, "MEAN_ANOMALY": 176.3252, "EPHEMERIS_TYPE": 0, "CLASSIFICATION_TYPE": "U", "NORAD_CAT_ID": 54741, "ELEMENT_SET_NO": 999, "REV_AT_EPOCH": 1116, "BSTAR": 0, "MEAN_MOTION_DOT": -1.4e-06, "MEAN_MOTION_DDOT": 0}, "tle": {"line1": "1 54741U 22170A   25360.25359448 -.00000140  00000+0  00000+0 0  9993", "line2": "2 54741   0.0213 259.1910 0002383  17.6851 176.3252  1.00270831 11167"}}, "geometry": {"type": "Point", "coordinates": [-163.43332574586043, -0.010363172076760576]}}, {"type": "Feature", "properties": {"norad_id": 54742, "name": "GALAXY 36 (G-36)", "group": "intelsat", "lat": 0.012514535326482404, "lon": -159.30509583053544, "alt_km": 35787.29285045944, "timestamp": "2025-12-26T12:57:38.935174+00:00", "meta": {"OBJECT_NAME": "GALAXY 36 (G-36)", "OBJECT_ID": "2022-170B", "EPOCH": "2025-12-26T06:07:06.911904", "MEAN_MOTION": 1.00271848, "ECCENTRICITY": 4.125e-05, "INCLINATION": 0.0203, "RA_OF_ASC_NODE": 100.3613, "ARG_OF_PERICENTER": 234.8581, "MEAN_ANOMALY": 122.5715, "EPHEMERIS_TYPE": 0, "CLASSIFICATION_TYPE": "U", "NORAD_CAT_ID": 54742, "ELEMENT_SET_NO": 999, "REV_AT_EPOCH": 1104, "BSTAR": 0, "MEAN_MOTION_DOT": -1.63e-06, "MEAN_MOTION_DDOT": 0}, "tle": {"line1": "1 54742U 22170B   25360.25494111 -.00000163  00000+0  00000+0 0  9996", "line2": "2 54742   0.0203 100.3613 0000412 234.8581 122.5715  1.00271848 11041"}}, "geometry": {"type": "Point", "coordinates": [-159.30509583053544, 0.012514535326482404]}}, {"type": "Feature", "properties": {"norad_id": 57493, "name": "GALAXY 37 (G-37)", "group": "intelsat", "lat": 0.019917518394433394, "lon": 162.65905864264667, "alt_km": 35790.004790538136, "timestamp": "2025-12-26T12:57:38.935185+00:00", "meta": {"OBJECT_NAME": "GALAXY 37 (G-37)", "OBJECT_ID": "2023-112A", "EPOCH": "2025-12-26T05:45:44.958816", "MEAN_MOTION": 1.00271855, "ECCENTRICITY": 0.00021519, "INCLINATION": 0.011, "RA_OF_ASC_NODE": 39.4451, "ARG_OF_PERICENTER": 239.0541, "MEAN_ANOMALY": 135.9186, "EPHEMERIS_TYPE": 0, "CLASSIFICATION_TYPE": "U", "NORAD_CAT_ID": 57493, "ELEMENT_SET_NO": 999, "REV_AT_EPOCH": 880, "BSTAR": 0, "MEAN_MOTION_DOT": 7e-07, "MEAN_MOTION_DDOT": 0}, "tle": {"line1": "1 57493U 23112A   25360.24010369  .00000070  00000+0  00000+0 0  9993", "line2": "2 57493   0.0110  39.4451 0002151 239.0541 135.9186  1.00271855  8809"}}, "geometry": {"type": "Point", "coordinates": [162.65905864264667, 0.019917518394433394]}}]}